[{"OBJECT_NAME":"COSMOS 2251 DEB","OBJECT_ID":"1993-036AAT","EPOCH":"2023-09-15T11:07:56.786880","MEAN_MOTION":14.2001196,"ECCENTRICITY":0.010537,"INCLINATION":74.0536,"RA_OF_ASC_NODE":273.3465,"ARG_OF_PERICENTER":175.8837,"MEAN_ANOMALY":335.9117,"EPHEMERIS_TYPE":0,"CLASSIFICATION_TYPE":"U","NORAD_CAT_ID":34790,"ELEMENT_SET_NO":999,"REV_AT_EPOCH":74924,"BSTAR":0.00068355,"MEAN_MOTION_DOT":1.513e-5,"MEAN_MOTION_DDOT":0},{"OBJECT_NAME":"COSMOS 2251 DEB","OBJECT_ID":"1993-036AAV","EPOCH":"2023-09-15T10:58:50.846880","MEAN_MOTION":14.44964189,"ECCENTRICITY":0.0015947,"INCLINATION":74.0221,"RA_OF_ASC_NODE":270.7446,"ARG_OF_PERICENTER":209.3748,"MEAN_ANOMALY":302.4464,"EPHEMERIS_TYPE":0,"CLASSIFICATION_TYPE":"U","NORAD_CAT_ID":34792,"ELEMENT_SET_NO":999,"REV_AT_EPOCH":75771,"BSTAR":0.0010486,"MEAN_MOTION_DOT":3.637e-5,"MEAN_MOTION_DDOT":0},{"OBJECT_NAME":"COSMOS 2251 DEB","OBJECT_ID":"1993-036AAW","EPOCH":"2023-09-15T14:51:02.477952","MEAN_MOTION":14.36213179,"ECCENTRICITY":0.0054338,"INCLINATION":74.0048,"RA_OF_ASC_NODE":320.8144,"ARG_OF_PERICENTER":308.1559,"MEAN_ANOMALY":202.8112,"EPHEMERIS_TYPE":0,"CLASSIFICATION_TYPE":"U","NORAD_CAT_ID":34793,"ELEMENT_SET_NO":999,"REV_AT_EPOCH":75560,"BSTAR":0.00029216,"MEAN_MOTION_DOT":8.4e-6,"MEAN_MOTION_DDOT":0},{"OBJECT_NAME":"COSMOS 2251 DEB","OBJECT_ID":"1993-036AAZ","EPOCH":"2023-09-15T04:07:43.258944","MEAN_MOTION":14.4138371,"ECCENTRICITY":0.0113718,"INCLINATION":74.0347,"RA_OF_ASC_NODE":303.8512,"ARG_OF_PERICENTER":248.7568,"MEAN_ANOMALY":168.5963,"EPHEMERIS_TYPE":0,"CLASSIFICATION_TYPE":"U","NORAD_CAT_ID":34796,"ELEMENT_SET_NO":999,"REV_AT_EPOCH":76189,"BSTAR":0.00078829,"MEAN_MOTION_DOT":2.73e-5,"MEAN_MOTION_DDOT":0},{"OBJECT_NAME":"COSMOS 2251 DEB","OBJECT_ID":"1993-036ABA","EPOCH":"2023-09-15T01:50:06.892224","MEAN_MOTION":14.29073664,"ECCENTRICITY":0.0089174,"INCLINATION":73.9839,"RA_OF_ASC_NODE":169.8794,"ARG_OF_PERICENTER":110.6308,"MEAN_ANOMALY":250.4433,"EPHEMERIS_TYPE":0,"CLASSIFICATION_TYPE":"U","NORAD_CAT_ID":34797,"ELEMENT_SET_NO":999,"REV_AT_EPOCH":75650,"BSTAR":0.002127,"MEAN_MOTION_DOT":5.603e-5,"MEAN_MOTION_DDOT":0},{"OBJECT_NAME":"COSMOS 2251 DEB","OBJECT_ID":"1993-036ABC","EPOCH":"2023-09-14T16:57:11.297664","MEAN_MOTION":13.40104245,"ECCENTRICITY":0.0472351,"INCLINATION":73.9418,"RA_OF_ASC_NODE":359.9412,"ARG_OF_PERICENTER":185.9597,"MEAN_ANOMALY":173.5766,"EPHEMERIS_TYPE":0,"CLASSIFICATION_TYPE":"U","NORAD_CAT_ID":34813,"ELEMENT_SET_NO":999,"REV_AT_EPOCH":70627,"BSTAR":0.0075971,"MEAN_MOTION_DOT":7.957e-5,"MEAN_MOTION_DDOT":0},{"OBJECT_NAME":"COSMOS 2251 DEB","OBJECT_ID":"1993-036ABD","EPOCH":"2023-09-15T03:55:06.610944","MEAN_MOTION":14.30276154,"ECCENTRICITY":0.006011,"INCLINATION":73.8983,"RA_OF_ASC_NODE":37.2769,"ARG_OF_PERICENTER":93.1445,"MEAN_ANOMALY":81.8622,"EPHEMERIS_TYPE":0,"CLASSIFICATION_TYPE":"U","NORAD_CAT_ID":34814,"ELEMENT_SET_NO":999,"REV_AT_EPOCH":75587,"BSTAR":0.0012628,"MEAN_MOTION_DOT":3.316e-5,"MEAN_MOTION_DDOT":0},{"OBJECT_NAME":"COSMOS 2251 DEB","OBJECT_ID":"1993-036ABE","EPOCH":"2023-09-15T11:58:07.209984","MEAN_MOTION":14.63434557,"ECCENTRICITY":0.0075326,"INCLINATION":74.0481,"RA_OF_ASC_NODE":30.8005,"ARG_OF_PERICENTER":314.1029,"MEAN_ANOMALY":45.3955,"EPHEMERIS_TYPE":0,"CLASSIFICATION_TYPE":"U","NORAD_CAT_ID":34815,"ELEMENT_SET_NO":999,"REV_AT_EPOCH":76585,"BSTAR":0.00066728,"MEAN_MOTION_DOT":3.567e-5,"MEAN_MOTION_DDOT":0},{"OBJECT_NAME":"COSMOS 2251 DEB","OBJECT_ID":"1993-036ABF","EPOCH":"2023-09-15T08:36:15.676992","MEAN_MOTION":13.55645206,"ECCENTRICITY":0.0381997,"INCLINATION":73.8904,"RA_OF_ASC_NODE":37.1737,"ARG_OF_PERICENTER":248.5712,"MEAN_ANOMALY":134.4454,"EPHEMERIS_TYPE":0,"CLASSIFICATION_TYPE":"U","NORAD_CAT_ID":34816,"ELEMENT_SET_NO":999,"REV_AT_EPOCH":71668,"BSTAR":0.0014469,"MEAN_MOTION_DOT":1.585e-5,"MEAN_MOTION_DDOT":0},{"OBJECT_NAME":"COSMOS 2251 DEB","OBJECT_ID":"1993-036ABH","EPOCH":"2023-09-15T06:46:08.414112","MEAN_MOTION":14.34783457,"ECCENTRICITY":0.002647,"INCLINATION":74.039,"RA_OF_ASC_NODE":1.1229,"ARG_OF_PERICENTER":280.2017,"MEAN_ANOMALY":109.9802,"EPHEMERIS_TYPE":0,"CLASSIFICATION_TYPE":"U","NORAD_CAT_ID":34818,"ELEMENT_SET_NO":999,"REV_AT_EPOCH":75608,"BSTAR":0.00037041,"MEAN_MOTION_DOT":1.028e-5,"MEAN_MOTION_DDOT":0},{"OBJECT_NAME":"COSMOS 2251 DEB","OBJECT_ID":"1993-036ABJ","EPOCH":"2023-09-15T11:11:36.878784","MEAN_MOTION":14.47741817,"ECCENTRICITY":0.0022354,"INCLINATION":74.0228,"RA_OF_ASC_NODE":256.419,"ARG_OF_PERICENTER":193.3054,"MEAN_ANOMALY":321.1448,"EPHEMERIS_TYPE":0,"CLASSIFICATION_TYPE":"U","NORAD_CAT_ID":34819,"ELEMENT_SET_NO":999,"REV_AT_EPOCH":76308,"BSTAR":0.0014267,"MEAN_MOTION_DOT":5.263e-5,"MEAN_MOTION_DDOT":0},{"OBJECT_NAME":"COSMOS 2251 DEB","OBJECT_ID":"1993-036ABN","EPOCH":"2023-09-15T07:07:22.689696","MEAN_MOTION":14.47523473,"ECCENTRICITY":0.0172264,"INCLINATION":74.043,"RA_OF_ASC_NODE":204.3019,"ARG_OF_PERICENTER":135.1959,"MEAN_ANOMALY":226.3261,"EPHEMERIS_TYPE":0,"CLASSIFICATION_TYPE":"U","NORAD_CAT_ID":34823,"ELEMENT_SET_NO":999,"REV_AT_EPOCH":76494,"BSTAR":0.00055214,"MEAN_MOTION_DOT":2.417e-5,"MEAN_MOTION_DDOT":0},{"OBJECT_NAME":"COSMOS 2251 DEB","OBJECT_ID":"1993-036ABP","EPOCH":"2023-09-13T16:05:17.312928","MEAN_MOTION":14.42878096,"ECCENTRICITY":0.002397,"INCLINATION":74.0252,"RA_OF_ASC_NODE":237.2894,"ARG_OF_PERICENTER":241.309,"MEAN_ANOMALY":118.5657,"EPHEMERIS_TYPE":0,"CLASSIFICATION_TYPE":"U","NORAD_CAT_ID":34845,"ELEMENT_SET_NO":999,"REV_AT_EPOCH":75611,"BSTAR":0.00042395,"MEAN_MOTION_DOT":1.394e-5,"MEAN_MOTION_DDOT":0},{"OBJECT_NAME":"COSMOS 2251 DEB","OBJECT_ID":"1993-036ABQ","EPOCH":"2023-09-15T09:08:29.304672","MEAN_MOTION":14.39267999,"ECCENTRICITY":0.0030298,"INCLINATION":74.0375,"RA_OF_ASC_NODE":344.1673,"ARG_OF_PERICENTER":256.0612,"MEAN_ANOMALY":103.7173,"EPHEMERIS_TYPE":0,"CLASSIFICATION_TYPE":"U","NORAD_CAT_ID":34846,"ELEMENT_SET_NO":999,"REV_AT_EPOCH":75583,"BSTAR":0.0010641,"MEAN_MOTION_DOT":3.295e-5,"MEAN_MOTION_DDOT":0},{"OBJECT_NAME":"COSMOS 2251 DEB","OBJECT_ID":"1993-036ABR","EPOCH":"2023-09-15T11:15:26.097120","MEAN_MOTION":15.01512041,"ECCENTRICITY":0.0089576,"INCLINATION":74.0362,"RA_OF_ASC_NODE":275.6588,"ARG_OF_PERICENTER":190.2143,"MEAN_ANOMALY":169.7229,"EPHEMERIS_TYPE":0,"CLASSIFICATION_TYPE":"U","NORAD_CAT_ID":34847,"ELEMENT_SET_NO":999,"REV_AT_EPOCH":55719,"BSTAR":0.00071135,"MEAN_MOTION_DOT":0.00010005,"MEAN_MOTION_DDOT":0},{"OBJECT_NAME":"COSMOS 2251 DEB","OBJECT_ID":"1993-036ABW","EPOCH":"2023-09-05T23:28:31.083456","MEAN_MOTION":14.35854158,"ECCENTRICITY":0.0017813,"INCLINATION":74.0356,"RA_OF_ASC_NODE":345.8117,"ARG_OF_PERICENTER":293.3939,"MEAN_ANOMALY":66.534,"EPHEMERIS_TYPE":0,"CLASSIFICATION_TYPE":"U","NORAD_CAT_ID":34852,"ELEMENT_SET_NO":999,"REV_AT_EPOCH":75634,"BSTAR":0.00012327,"MEAN_MOTION_DOT":3.31e-6,"MEAN_MOTION_DDOT":0}]
