COSMOS 2251 DEB         
1 34790U 93036AAT 23258.46385170  .00001513  00000+0  68355-3 0  9997
2 34790  74.0536 273.3465 0105370 175.8837 335.9117 14.20011960749244
COSMOS 2251 DEB         
1 34792U 93036AAV 23258.45753295  .00003637  00000+0  10486-2 0  9995
2 34792  74.0221 270.7446 0015947 209.3748 302.4464 14.44964189757712
COSMOS 2251 DEB         
1 34793U 93036AAW 23258.61877868  .00000840  00000+0  29216-3 0  9992
2 34793  74.0048 320.8144 0054338 308.1559 202.8112 14.36213179755603
COSMOS 2251 DEB         
1 34796U 93036AAZ 23258.17202846  .00002730  00000+0  78829-3 0  9998
2 34796  74.0347 303.8512 0113718 248.7568 168.5963 14.41383710761890
COSMOS 2251 DEB         
1 34797U 93036ABA 23258.07646866  .00005603  00000+0  21270-2 0  9991
2 34797  73.9839 169.8794 0089174 110.6308 250.4433 14.29073664756509
COSMOS 2251 DEB         
1 34813U 93036ABC 23257.70638076  .00007957  00000+0  75971-2 0  9994
2 34813  73.9418 359.9412 0472351 185.9597 173.5766 13.40104245706273
COSMOS 2251 DEB         
1 34814U 93036ABD 23258.16327096  .00003316  00000+0  12628-2 0  9998
2 34814  73.8983  37.2769 0060110  93.1445  81.8622 14.30276154755870
COSMOS 2251 DEB         
1 34815U 93036ABE 23258.49869456  .00003567  00000+0  66728-3 0  9995
2 34815  74.0481  30.8005 0075326 314.1029  45.3955 14.63434557765850
COSMOS 2251 DEB         
1 34816U 93036ABF 23258.35851478  .00001585  00000+0  14469-2 0  9998
2 34816  73.8904  37.1737 0381997 248.5712 134.4454 13.55645206716689
COSMOS 2251 DEB         
1 34818U 93036ABH 23258.28204183  .00001028  00000+0  37041-3 0  9991
2 34818  74.0390   1.1229 0026470 280.2017 109.9802 14.34783457756084
COSMOS 2251 DEB         
1 34819U 93036ABJ 23258.46639906  .00005263  00000+0  14267-2 0  9996
2 34819  74.0228 256.4190 0022354 193.3054 321.1448 14.47741817763089
COSMOS 2251 DEB         
1 34823U 93036ABN 23258.29679039  .00002417  00000+0  55214-3 0  9999
2 34823  74.0430 204.3019 0172264 135.1959 226.3261 14.47523473764946
COSMOS 2251 DEB         
1 34845U 93036ABP 23256.67033927  .00001394  00000+0  42395-3 0  9992
2 34845  74.0252 237.2894 0023970 241.3090 118.5657 14.42878096756113
COSMOS 2251 DEB         
1 34846U 93036ABQ 23258.38089473  .00003295  00000+0  10641-2 0  9990
2 34846  74.0375 344.1673 0030298 256.0612 103.7173 14.39267999755834
COSMOS 2251 DEB         
1 34847U 93036ABR 23258.46905205  .00010005  00000+0  71135-3 0  9993
2 34847  74.0362 275.6588 0089576 190.2143 169.7229 15.01512041557199
COSMOS 2251 DEB         
1 34852U 93036ABW 23248.97813754  .00000331  00000+0  12327-3 0  9990
2 34852  74.0356 345.8117 0017813 293.3939  66.5340 14.35854158756349
